[{"OBJECT_NAME":"IRIDIUM 173","OBJECT_ID":"2019-002D","EPOCH":"2026-03-06T05:00:02.744640","MEAN_MOTION":14.34217046,"ECCENTRICITY":0.00021109,"INCLINATION":86.3965,"RA_OF_ASC_NODE":36.5874,"ARG_OF_PERICENTER":82.3366,"MEAN_ANOMALY":277.8069,"EPHEMERIS_TYPE":0,"CLASSIFICATION_TYPE":"U","NORAD_CAT_ID":43925,"ELEMENT_SET_NO":999,"REV_AT_EPOCH":37419,"BSTAR":3.7828607e-5,"MEAN_MOTION_DOT":1.26e-6,"MEAN_MOTION_DDOT":0},{"OBJECT_NAME":"IRIDIUM 169","OBJECT_ID":"2019-002E","EPOCH":"2026-03-06T00:45:19.891872","MEAN_MOTION":14.38610841,"ECCENTRICITY":0.00015093,"INCLINATION":86.4167,"RA_OF_ASC_NODE":68.3181,"ARG_OF_PERICENTER":77.4733,"MEAN_ANOMALY":282.6634,"EPHEMERIS_TYPE":0,"CLASSIFICATION_TYPE":"U","NORAD_CAT_ID":43926,"ELEMENT_SET_NO":999,"REV_AT_EPOCH":37539,"BSTAR":5.1300727e-5,"MEAN_MOTION_DOT":1.77e-6,"MEAN_MOTION_DDOT":0},{"OBJECT_NAME":"IRIDIUM 172","OBJECT_ID":"2019-002F","EPOCH":"2026-03-06T06:31:22.833120","MEAN_MOTION":14.34218679,"ECCENTRICITY":0.00023765,"INCLINATION":86.3967,"RA_OF_ASC_NODE":36.5686,"ARG_OF_PERICENTER":85.9463,"MEAN_ANOMALY":274.2004,"EPHEMERIS_TYPE":0,"CLASSIFICATION_TYPE":"U","NORAD_CAT_ID":43927,"ELEMENT_SET_NO":999,"REV_AT_EPOCH":37421,"BSTAR":4.8241085e-5,"MEAN_MOTION_DOT":1.55e-6,"MEAN_MOTION_DDOT":0},{"OBJECT_NAME":"IRIDIUM 175","OBJECT_ID":"2019-002G","EPOCH":"2026-03-06T06:01:50.814912","MEAN_MOTION":14.72252595,"ECCENTRICITY":0.0002395,"INCLINATION":86.1543,"RA_OF_ASC_NODE":334.2909,"ARG_OF_PERICENTER":110.3875,"MEAN_ANOMALY":249.7599,"EPHEMERIS_TYPE":0,"CLASSIFICATION_TYPE":"U","NORAD_CAT_ID":43928,"ELEMENT_SET_NO":999,"REV_AT_EPOCH":38409,"BSTAR":0.00021591468,"MEAN_MOTION_DOT":1.387e-5,"MEAN_MOTION_DDOT":0},{"OBJECT_NAME":"IRIDIUM 171","OBJECT_ID":"2019-002H","EPOCH":"2026-03-06T06:03:58.926240","MEAN_MOTION":14.34217498,"ECCENTRICITY":0.00019842,"INCLINATION":86.3972,"RA_OF_ASC_NODE":36.872,"ARG_OF_PERICENTER":92.0813,"MEAN_ANOMALY":268.061,"EPHEMERIS_TYPE":0,"CLASSIFICATION_TYPE":"U","NORAD_CAT_ID":43929,"ELEMENT_SET_NO":999,"REV_AT_EPOCH":37420,"BSTAR":1.489191e-6,"MEAN_MOTION_DOT":2.4e-7,"MEAN_MOTION_DDOT":0},{"OBJECT_NAME":"IRIDIUM 170","OBJECT_ID":"2019-002J","EPOCH":"2026-03-06T06:17:22.096320","MEAN_MOTION":14.72252417,"ECCENTRICITY":0.00027123,"INCLINATION":86.6088,"RA_OF_ASC_NODE":36.5585,"ARG_OF_PERICENTER":90.0531,"MEAN_ANOMALY":270.0997,"EPHEMERIS_TYPE":0,"CLASSIFICATION_TYPE":"U","NORAD_CAT_ID":43930,"ELEMENT_SET_NO":999,"REV_AT_EPOCH":38411,"BSTAR":0.00021331435,"MEAN_MOTION_DOT":1.37e-5,"MEAN_MOTION_DDOT":0},{"OBJECT_NAME":"IRIDIUM 167","OBJECT_ID":"2019-002K","EPOCH":"2026-03-06T05:54:50.872032","MEAN_MOTION":14.3421736,"ECCENTRICITY":0.0001757,"INCLINATION":86.3965,"RA_OF_ASC_NODE":36.6013,"ARG_OF_PERICENTER":91.9517,"MEAN_ANOMALY":268.188,"EPHEMERIS_TYPE":0,"CLASSIFICATION_TYPE":"U","NORAD_CAT_ID":43931,"ELEMENT_SET_NO":999,"REV_AT_EPOCH":37420,"BSTAR":-1.506336e-5,"MEAN_MOTION_DOT":-2.2e-7,"MEAN_MOTION_DDOT":0},{"OBJECT_NAME":"IRIDIUM 181","OBJECT_ID":"2023-068S","EPOCH":"2026-03-06T03:39:18.751104","MEAN_MOTION":14.43315952,"ECCENTRICITY":0.0002622,"INCLINATION":86.4457,"RA_OF_ASC_NODE":99.8796,"ARG_OF_PERICENTER":97.1163,"MEAN_ANOMALY":263.0336,"EPHEMERIS_TYPE":0,"CLASSIFICATION_TYPE":"U","NORAD_CAT_ID":56726,"ELEMENT_SET_NO":999,"REV_AT_EPOCH":14757,"BSTAR":0.0001052595,"MEAN_MOTION_DOT":3.75e-6,"MEAN_MOTION_DDOT":0},{"OBJECT_NAME":"IRIDIUM 177","OBJECT_ID":"2023-068T","EPOCH":"2026-03-06T07:08:41.090784","MEAN_MOTION":14.80249912,"ECCENTRICITY":0.00023361,"INCLINATION":86.2,"RA_OF_ASC_NODE":17.632,"ARG_OF_PERICENTER":81.0526,"MEAN_ANOMALY":279.096,"EPHEMERIS_TYPE":0,"CLASSIFICATION_TYPE":"U","NORAD_CAT_ID":56727,"ELEMENT_SET_NO":999,"REV_AT_EPOCH":15114,"BSTAR":0.00026861225,"MEAN_MOTION_DOT":2.068e-5,"MEAN_MOTION_DDOT":0},{"OBJECT_NAME":"IRIDIUM 174","OBJECT_ID":"2023-068U","EPOCH":"2026-03-06T04:21:41.621472","MEAN_MOTION":14.72255894,"ECCENTRICITY":0.00025916,"INCLINATION":86.6093,"RA_OF_ASC_NODE":36.7291,"ARG_OF_PERICENTER":80.1392,"MEAN_ANOMALY":280.0118,"EPHEMERIS_TYPE":0,"CLASSIFICATION_TYPE":"U","NORAD_CAT_ID":56728,"ELEMENT_SET_NO":999,"REV_AT_EPOCH":15086,"BSTAR":0.00021532935,"MEAN_MOTION_DOT":1.383e-5,"MEAN_MOTION_DDOT":0},{"OBJECT_NAME":"IRIDIUM 178","OBJECT_ID":"2023-068V","EPOCH":"2026-03-06T06:53:02.065344","MEAN_MOTION":14.80233023,"ECCENTRICITY":0.000238,"INCLINATION":86.6483,"RA_OF_ASC_NODE":68.362,"ARG_OF_PERICENTER":100.7325,"MEAN_ANOMALY":259.4165,"EPHEMERIS_TYPE":0,"CLASSIFICATION_TYPE":"U","NORAD_CAT_ID":56729,"ELEMENT_SET_NO":999,"REV_AT_EPOCH":15114,"BSTAR":9.6363714e-5,"MEAN_MOTION_DOT":7.58e-6,"MEAN_MOTION_DDOT":0},{"OBJECT_NAME":"IRIDIUM 179","OBJECT_ID":"2023-068W","EPOCH":"2026-03-06T06:45:18.118080","MEAN_MOTION":14.80233655,"ECCENTRICITY":0.0002249,"INCLINATION":86.6716,"RA_OF_ASC_NODE":77.0455,"ARG_OF_PERICENTER":95.1606,"MEAN_ANOMALY":264.9872,"EPHEMERIS_TYPE":0,"CLASSIFICATION_TYPE":"U","NORAD_CAT_ID":56730,"ELEMENT_SET_NO":999,"REV_AT_EPOCH":15114,"BSTAR":5.949244e-5,"MEAN_MOTION_DOT":4.78e-6,"MEAN_MOTION_DDOT":0}]
