IRIDIUM 173             
1 43925U 19002D   26065.20836510  .00000126  00000+0  37829-4 0  9990
2 43925  86.3965  36.5874 0002110  82.3366 277.8069 14.34217046374192
IRIDIUM 169             
1 43926U 19002E   26065.03148023  .00000177  00000+0  51301-4 0  9994
2 43926  86.4167  68.3181 0001509  77.4733 282.6634 14.38610841375395
IRIDIUM 172             
1 43927U 19002F   26065.27179205  .00000155  00000+0  48241-4 0  9992
2 43927  86.3967  36.5686 0002376  85.9463 274.2004 14.34218679374214
IRIDIUM 175             
1 43928U 19002G   26065.25128258  .00001387  00000+0  21591-3 0  9999
2 43928  86.1543 334.2909 0002395 110.3875 249.7599 14.72252595384090
IRIDIUM 171             
1 43929U 19002H   26065.25276535  .00000024  00000+0  14892-5 0  9997
2 43929  86.3972  36.8720 0001984  92.0813 268.0610 14.34217498374207
IRIDIUM 170             
1 43930U 19002J   26065.26206130  .00001370  00000+0  21331-3 0  9993
2 43930  86.6088  36.5585 0002712  90.0531 270.0997 14.72252417384115
IRIDIUM 167             
1 43931U 19002K   26065.24642213 -.00000022  00000+0 -15063-4 0  9999
2 43931  86.3965  36.6013 0001757  91.9517 268.1880 14.34217360374200
IRIDIUM 181             
1 56726U 23068S   26065.15230036  .00000375  00000+0  10526-3 0  9995
2 56726  86.4457  99.8796 0002622  97.1163 263.0336 14.43315952147573
IRIDIUM 177             
1 56727U 23068T   26065.29769781  .00002068  00000+0  26861-3 0  9995
2 56727  86.2000  17.6320 0002336  81.0526 279.0960 14.80249912151145
IRIDIUM 174             
1 56728U 23068U   26065.18173173  .00001383  00000+0  21533-3 0  9998
2 56728  86.6093  36.7291 0002591  80.1392 280.0118 14.72255894150867
IRIDIUM 178             
1 56729U 23068V   26065.28682946  .00000758  00000+0  96364-4 0  9993
2 56729  86.6483  68.3620 0002380 100.7325 259.4165 14.80233023151142
IRIDIUM 179             
1 56730U 23068W   26065.28145970  .00000478  00000+0  59492-4 0  9996
2 56730  86.6716  77.0455 0002249  95.1606 264.9872 14.80233655151146
